1 26407U 00040A 26161.87124475 .00000075 00000+0 00000+0 0 9997 
2 26407 54.8522 215.4133 0121098 302.4426 101.0562 2.00557601189827 
1 27663U 03005A 26162.11914009 .00000078 00000+0 00000+0 0 9997 
2 27663 54.8831 215.2101 0147956 53.0771 305.3357 2.00560850171182 
1 28190U 04009A 26162.00621920 -.00000040 00000+0 00000+0 0 9993 
2 28190 54.8350 275.9371 0115892 172.8026 257.3535 2.00554861162823 
1 28474U 04045A 26158.35392840 -.00000059 00000+0 00000+0 0 9997 
2 28474 55.1426 325.2921 0169828 316.1566 61.9153 2.00555496158236 
1 28874U 05038A 26161.95561845 -.00000037 00000+0 00000+0 0 9993 
2 28874 54.8833 273.4291 0127817 296.1047 125.9141 2.00566047151713 
1 28899U 05044A 26162.00985281 -.00000247 00000+0 00000+0 0 9991 
2 28899 5.0868 43.7052 0002854 34.8095 327.8867 1.00271313 75465 
1 29486U 06042A 26161.26557962 .00000113 00000+0 00000+0 0 9992 
2 29486 54.7099 151.6138 0106495 54.2484 127.8770 2.00570235144254 
1 29601U 06052A 26159.94234806 .00000059 00000+0 00000+0 0 9992 
2 29601 54.9359 214.3332 0085354 90.7851 270.2705 2.00557765143242 
1 32260U 07047A 26160.74583911 -.00000022 00000+0 00000+0 0 9997 
2 32260 54.0898 80.3723 0166500 87.2322 274.6705 2.00555560136665 
1 32275U 07052A 26161.34602035 -.00000036 00000+0 00000+0 0 9990 
2 32275 65.5811 316.1641 0002223 191.9747 168.0168 2.13104347144910 
1 32276U 07052B 26161.40877896 -.00000036 00000+0 00000+0 0 9997 
2 32276 65.5977 316.2897 0007804 333.3143 18.7316 2.13103421144930 
1 32384U 07062A 26160.56445277 -.00000039 00000+0 00000+0 0 9991 
2 32384 55.0380 274.4593 0035607 165.1380 191.1290 2.00559605135354 
1 32393U 07065A 26161.13852979 .00000115 00000+0 00000+0 0 9993 
2 32393 64.3174 192.1535 0001092 340.0608 110.6232 2.13101497143625 
1 32395U 07065C 26161.37458745 .00000116 00000+0 00000+0 0 9995 
2 32395 64.3260 192.2176 0017247 354.1797 49.9435 2.13100316143582 
1 32711U 08012A 26162.15350953 .00000105 00000+0 00000+0 0 9997 
2 32711 54.4965 150.1657 0211162 247.7699 109.9830 2.00572235133633 
1 35752U 09043A 26161.38447792 -.00000065 00000+0 00000+0 0 9998 
2 35752 56.2061 27.7190 0053730 82.9103 92.0957 2.00554574123225 
1 36111U 09070A 26161.51650904 -.00000029 00000+0 00000+0 0 9994 
2 36111 65.0072 71.1996 0004845 328.3818 210.3828 2.13103917128283 
1 36112U 09070B 26162.30250660 -.00000032 00000+0 00000+0 0 9992 
2 36112 64.9933 71.0172 0002496 127.8913 61.3292 2.13101298128303 
1 36402U 10007C 26156.93373906 -.00000030 00000+0 00000+0 0 9995 
2 36402 65.4275 314.8474 0002122 103.7485 288.7249 2.13101712126492 
1 36585U 10022A 26161.97422282 .00000087 00000+0 00000+0 0 9997 
2 36585 54.2707 208.8123 0126334 66.1317 293.1102 2.00562095117467 
1 36828U 10036A 26162.01077356 -.00000027 00000+0 00000+0 0 9991 
2 36828 54.3015 163.0158 0059203 225.1338 342.7569 1.00274001 58031 
1 37210U 10057A 26162.04816123 -.00000097 00000+0 00000+0 0 9993 
2 37210 3.6304 68.9848 0004995 198.4306 169.3376 1.00271518 57239 
1 37256U 10068A 26161.68988234 -.00000227 00000+0 00000+0 0 9992 
2 37256 47.5603 271.9154 0055523 212.3969 130.7661 1.00285724 56724 
1 37384U 11013A 26160.59429605 -.00000192 00000+0 00000+0 0 9997 
2 37384 62.3960 40.2253 0034379 184.4451 355.1654 1.00270057 55586 
1 37605U 11022A 26162.20631822 .00000101 00000+0 00000+0 0 9998 
2 37605 2.1148 81.8932 0002304 206.4188 100.5863 1.00271617 53150 
1 37763U 11038A 26161.99412258 .00000095 00000+0 00000+0 0 9997 
2 37763 54.5995 165.7286 0159284 231.3799 313.2674 1.00286219 54580 
1 37846U 11060A 26160.80941627 -.00000062 00000+0 00000+0 0 9995 
2 37846 56.9968 341.9613 0003215 49.6311 310.4133 1.70475644 90995 
1 37847U 11060B 26158.40220003 -.00000063 00000+0 00000+0 0 9998 
2 37847 57.0009 342.0270 0003434 13.7700 354.5257 1.70476015 90968 
1 37867U 11064A 26161.15145711 -.00000025 00000+0 00000+0 0 9990 
2 37867 65.2660 73.1090 0022909 239.3726 287.6651 2.13104012113613 
1 37868U 11064B 26161.40746796 -.00000026 00000+0 00000+0 0 9990 
2 37868 65.2725 73.1796 0019984 240.6701 303.1319 2.13103182113618 
1 37869U 11064C 26161.37519559 -.00000026 00000+0 00000+0 0 9992 
2 37869 65.2793 73.2023 0025764 253.5384 220.6530 2.13101999113624 
