OBJECT_NAME,OBJECT_ID,EPOCH,MEAN_MOTION,ECCENTRICITY,INCLINATION,RA_OF_ASC_NODE,ARG_OF_PERICENTER,MEAN_ANOMALY,EPHEMERIS_TYPE,CLASSIFICATION_TYPE,NORAD_CAT_ID,ELEMENT_SET_NO,REV_AT_EPOCH,BSTAR,MEAN_MOTION_DOT,MEAN_MOTION_DDOT
GPS BIIR-5  (PRN 22),2000-040A,2026-06-10T20:54:35.546400,2.00557601,.01210985,54.8522,215.4133,302.4426,101.0562,0,U,26407,999,18982,0,.75E-6,0
GPS BIIR-8  (PRN 16),2003-005A,2026-06-11T02:51:33.703776,2.00560850,.01479564,54.8831,215.2101,53.0771,305.3357,0,U,27663,999,17118,0,.78E-6,0
GPS BIIR-11 (PRN 19),2004-009A,2026-06-11T00:08:57.338880,2.00554861,.01158929,54.8350,275.9371,172.8026,257.3535,0,U,28190,999,16282,0,-.4E-6,0
GPS BIIR-13 (PRN 02),2004-045A,2026-06-07T08:29:39.413760,2.00555496,.0169828,55.1426,325.2921,316.1566,61.9153,0,U,28474,999,15823,0,-.59E-6,0
GPS BIIRM-1 (PRN 17),2005-038A,2026-06-10T22:56:05.434080,2.00566047,.01278179,54.8833,273.4291,296.1047,125.9141,0,U,28874,999,15171,0,-.37E-6,0
INMARSAT 4-F2 (SOUTHPAN/PRN 122),2005-044A,2026-06-11T00:14:11.282784,1.00271313,.00028542,5.0868,43.7052,34.8095,327.8867,0,U,28899,999,7546,0,-.247E-5,0
GPS BIIRM-2 (PRN 31),2006-042A,2026-06-10T06:22:26.079168,2.00570235,.0106495,54.7099,151.6138,54.2484,127.8770,0,U,29486,999,14425,0,.113E-5,0
GPS BIIRM-3 (PRN 12),2006-052A,2026-06-08T22:36:58.872384,2.00557765,.00853547,54.9359,214.3332,90.7851,270.2705,0,U,29601,999,14324,0,.59E-6,0
GPS BIIRM-4 (PRN 15),2007-047A,2026-06-09T17:54:00.499104,2.00555560,.01665008,54.0898,80.3723,87.2322,274.6705,0,U,32260,999,13666,0,-.22E-6,0
COSMOS 2433 (720),2007-052A,2026-06-10T08:18:16.158240,2.13104347,.00022232,65.5811,316.1641,191.9747,168.0168,0,U,32275,999,14491,0,-.36E-6,0
COSMOS 2432 (719),2007-052B,2026-06-10T09:48:38.502144,2.13103421,.00078049,65.5977,316.2897,333.3143,18.7316,0,U,32276,999,14493,0,-.36E-6,0
GPS BIIRM-5 (PRN 29),2007-062A,2026-06-09T13:32:48.719328,2.00559605,.00356072,55.0380,274.4593,165.1380,191.1290,0,U,32384,999,13535,0,-.39E-6,0
COSMOS 2434 (721),2007-065A,2026-06-10T03:19:28.973856,2.13101497,.00010921,64.3174,192.1535,340.0608,110.6232,0,U,32393,999,14362,0,.115E-5,0
COSMOS 2436 (723),2007-065C,2026-06-10T08:59:24.355680,2.13100316,.00172474,64.3260,192.2176,354.1797,49.9435,0,U,32395,999,14358,0,.116E-5,0
GPS BIIRM-6 (PRN 07),2008-012A,2026-06-11T03:41:03.223392,2.00572235,.02111624,54.4965,150.1657,247.7699,109.9830,0,U,32711,999,13363,0,.105E-5,0
GPS BIIRM-8 (PRN 05),2009-043A,2026-06-10T09:13:38.892288,2.00554574,.00537306,56.2061,27.7190,82.9103,92.0957,0,U,35752,999,12322,0,-.65E-6,0
COSMOS 2456 (730),2009-070A,2026-06-10T12:23:46.381056,2.13103917,.00048456,65.0072,71.1996,328.3818,210.3828,0,U,36111,999,12828,0,-.29E-6,0
COSMOS 2457 (733),2009-070B,2026-06-11T07:15:36.570240,2.13101298,.00024966,64.9933,71.0172,127.8913,61.3292,0,U,36112,999,12830,0,-.32E-6,0
COSMOS 2460 (732),2010-007C,2026-06-05T22:24:35.054784,2.13101712,.00021228,65.4275,314.8474,103.7485,288.7249,0,U,36402,999,12649,0,-.3E-6,0
GPS BIIF-1  (PRN 25),2010-022A,2026-06-10T23:22:52.851648,2.00562095,.01263345,54.2707,208.8123,66.1317,293.1102,0,U,36585,999,11746,0,.87E-6,0
BEIDOU-2 IGSO-1 (C06),2010-036A,2026-06-11T00:15:30.835584,1.00274001,.00592032,54.3015,163.0158,225.1338,342.7569,0,U,36828,999,5803,0,-.27E-6,0
BEIDOU-2 G4 (C04),2010-057A,2026-06-11T01:09:21.130272,1.00271518,.00049954,3.6304,68.9848,198.4306,169.3376,0,U,37210,999,5723,0,-.97E-6,0
BEIDOU-2 IGSO-2 (C07),2010-068A,2026-06-10T16:33:25.834176,1.00285724,.00555234,47.5603,271.9154,212.3969,130.7661,0,U,37256,999,5672,0,-.227E-5,0
BEIDOU-2 IGSO-3 (C08),2011-013A,2026-06-09T14:15:47.178720,1.00270057,.00343795,62.3960,40.2253,184.4451,355.1654,0,U,37384,999,5558,0,-.192E-5,0
GSAT-8 (GAGAN/PRN 127),2011-022A,2026-06-11T04:57:05.894208,1.00271617,.00023048,2.1148,81.8932,206.4188,100.5863,0,U,37605,999,5315,0,.101E-5,0
BEIDOU-2 IGSO-4 (C09),2011-038A,2026-06-10T23:51:32.190912,1.00286219,.01592846,54.5995,165.7286,231.3799,313.2674,0,U,37763,999,5458,0,.95E-6,0
GSAT0101 (GALILEO-PFM),2011-060A,2026-06-09T19:25:33.565728,1.70475644,.00032151,56.9968,341.9613,49.6311,310.4133,0,U,37846,999,9099,0,-.62E-6,0
GSAT0102 (GALILEO-FM2),2011-060B,2026-06-07T09:39:10.082592,1.70476015,.00034343,57.0009,342.0270,13.7700,354.5257,0,U,37847,999,9096,0,-.63E-6,0
COSMOS 2476 (744),2011-064A,2026-06-10T03:38:05.894304,2.13104012,.00229093,65.2660,73.1090,239.3726,287.6651,0,U,37867,999,11361,0,-.25E-6,0
COSMOS 2477 (745),2011-064B,2026-06-10T09:46:45.231744,2.13103182,.00199847,65.2725,73.1796,240.6701,303.1319,0,U,37868,999,11361,0,-.26E-6,0
COSMOS 2475 (743),2011-064C,2026-06-10T09:00:16.898976,2.13101999,.00257647,65.2793,73.2023,253.5384,220.6530,0,U,37869,999,11362,0,-.26E-6,0
